CELESTIS-02             
1 25160U 98007D   15120.52388073 -.00000011  00000-0  53070-4 0  9995
2 25160 107.9467  69.5101 0064516 256.4794 199.6381 14.21355717892913
CELESTIS-03             
1 26034U 99070C   15120.19828218  .00008174  00000-0  67422-3 0  9992
2 26034  98.2425 246.6124 0013054 250.0382 109.9433 14.99244687828376
